[{"OBJECT_NAME":"STARLINK-30874","OBJECT_ID":"2023-170X","EPOCH":"2026-03-09T09:03:46.350720","MEAN_MOTION":15.26726036,"ECCENTRICITY":0.00017189,"INCLINATION":43.0017,"RA_OF_ASC_NODE":195.8134,"ARG_OF_PERICENTER":286.1371,"MEAN_ANOMALY":73.9291,"EPHEMERIS_TYPE":0,"CLASSIFICATION_TYPE":"U","NORAD_CAT_ID":58227,"ELEMENT_SET_NO":999,"REV_AT_EPOCH":13025,"BSTAR":-0.00011224497,"MEAN_MOTION_DOT":-3.268e-5,"MEAN_MOTION_DDOT":0},{"OBJECT_NAME":"YAOGAN-43 01H","OBJECT_ID":"2024-148H","EPOCH":"2026-03-10T00:13:57.702432","MEAN_MOTION":15.25826805,"ECCENTRICITY":0.000635,"INCLINATION":34.994,"RA_OF_ASC_NODE":64.6147,"ARG_OF_PERICENTER":359.2394,"MEAN_ANOMALY":0.8311,"EPHEMERIS_TYPE":0,"CLASSIFICATION_TYPE":"U","NORAD_CAT_ID":60465,"ELEMENT_SET_NO":999,"REV_AT_EPOCH":8702,"BSTAR":0.00039232254,"MEAN_MOTION_DOT":0.00010268,"MEAN_MOTION_DDOT":0}]
